[{"OBJECT_NAME":"STARLINK-36714","OBJECT_ID":"2026-036W","EPOCH":"2026-03-03T14:00:03.000384","MEAN_MOTION":15.85675168,"ECCENTRICITY":0.0001731,"INCLINATION":42.9946,"RA_OF_ASC_NODE":287.0349,"ARG_OF_PERICENTER":268.4623,"MEAN_ANOMALY":144.1781,"EPHEMERIS_TYPE":0,"CLASSIFICATION_TYPE":"U","NORAD_CAT_ID":67924,"ELEMENT_SET_NO":999,"REV_AT_EPOCH":266,"BSTAR":-0.0072817,"MEAN_MOTION_DOT":-0.01600172,"MEAN_MOTION_DDOT":0},{"OBJECT_NAME":"STARLINK-36726","OBJECT_ID":"2026-036X","EPOCH":"2026-03-03T14:00:03.000384","MEAN_MOTION":15.85860224,"ECCENTRICITY":0.0001654,"INCLINATION":42.9945,"RA_OF_ASC_NODE":287.026,"ARG_OF_PERICENTER":268.0038,"MEAN_ANOMALY":148.1776,"EPHEMERIS_TYPE":0,"CLASSIFICATION_TYPE":"U","NORAD_CAT_ID":67925,"ELEMENT_SET_NO":999,"REV_AT_EPOCH":266,"BSTAR":-0.0071984,"MEAN_MOTION_DOT":-0.01596773,"MEAN_MOTION_DDOT":0},{"OBJECT_NAME":"STARLINK-36758","OBJECT_ID":"2026-036Y","EPOCH":"2026-03-03T14:00:03.000384","MEAN_MOTION":15.8600957,"ECCENTRICITY":0.0001716,"INCLINATION":42.9944,"RA_OF_ASC_NODE":287.0166,"ARG_OF_PERICENTER":265.9833,"MEAN_ANOMALY":153.8552,"EPHEMERIS_TYPE":0,"CLASSIFICATION_TYPE":"U","NORAD_CAT_ID":67926,"ELEMENT_SET_NO":999,"REV_AT_EPOCH":266,"BSTAR":-0.007128,"MEAN_MOTION_DOT":-0.01593405,"MEAN_MOTION_DDOT":0},{"OBJECT_NAME":"STARLINK-36728","OBJECT_ID":"2026-036Z","EPOCH":"2026-03-03T14:00:03.000384","MEAN_MOTION":15.86278378,"ECCENTRICITY":0.000174,"INCLINATION":42.9944,"RA_OF_ASC_NODE":286.9976,"ARG_OF_PERICENTER":272.3484,"MEAN_ANOMALY":154.9194,"EPHEMERIS_TYPE":0,"CLASSIFICATION_TYPE":"U","NORAD_CAT_ID":67927,"ELEMENT_SET_NO":999,"REV_AT_EPOCH":266,"BSTAR":-0.0070513,"MEAN_MOTION_DOT":-0.01596884,"MEAN_MOTION_DDOT":0},{"OBJECT_NAME":"STARLINK-36771","OBJECT_ID":"2026-036AA","EPOCH":"2026-03-03T14:00:03.000384","MEAN_MOTION":15.86121201,"ECCENTRICITY":0.0001659,"INCLINATION":42.9943,"RA_OF_ASC_NODE":287.0066,"ARG_OF_PERICENTER":271.1497,"MEAN_ANOMALY":152.5349,"EPHEMERIS_TYPE":0,"CLASSIFICATION_TYPE":"U","NORAD_CAT_ID":67928,"ELEMENT_SET_NO":999,"REV_AT_EPOCH":266,"BSTAR":-0.0071229,"MEAN_MOTION_DOT":-0.01600064,"MEAN_MOTION_DDOT":0},{"OBJECT_NAME":"STARLINK-36809","OBJECT_ID":"2026-036AB","EPOCH":"2026-03-03T14:00:03.000384","MEAN_MOTION":15.86414982,"ECCENTRICITY":0.0001685,"INCLINATION":42.9943,"RA_OF_ASC_NODE":286.9885,"ARG_OF_PERICENTER":265.4377,"MEAN_ANOMALY":165.4966,"EPHEMERIS_TYPE":0,"CLASSIFICATION_TYPE":"U","NORAD_CAT_ID":67929,"ELEMENT_SET_NO":999,"REV_AT_EPOCH":266,"BSTAR":-0.0070083,"MEAN_MOTION_DOT":-0.01597761,"MEAN_MOTION_DDOT":0},{"OBJECT_NAME":"STARLINK-36865","OBJECT_ID":"2026-036AC","EPOCH":"2026-03-03T14:00:03.000384","MEAN_MOTION":15.86683768,"ECCENTRICITY":0.0001732,"INCLINATION":42.9942,"RA_OF_ASC_NODE":286.9699,"ARG_OF_PERICENTER":268.062,"MEAN_ANOMALY":170.1906,"EPHEMERIS_TYPE":0,"CLASSIFICATION_TYPE":"U","NORAD_CAT_ID":67930,"ELEMENT_SET_NO":999,"REV_AT_EPOCH":266,"BSTAR":-0.006933,"MEAN_MOTION_DOT":-0.01601371,"MEAN_MOTION_DDOT":0},{"OBJECT_NAME":"STARLINK-36781","OBJECT_ID":"2026-036AD","EPOCH":"2026-03-03T14:00:03.000384","MEAN_MOTION":15.86554268,"ECCENTRICITY":0.0001683,"INCLINATION":42.9944,"RA_OF_ASC_NODE":286.9793,"ARG_OF_PERICENTER":270.4041,"MEAN_ANOMALY":164.1743,"EPHEMERIS_TYPE":0,"CLASSIFICATION_TYPE":"U","NORAD_CAT_ID":67931,"ELEMENT_SET_NO":999,"REV_AT_EPOCH":266,"BSTAR":-0.0069658,"MEAN_MOTION_DOT":-0.0159892,"MEAN_MOTION_DDOT":0},{"OBJECT_NAME":"STARLINK-36301","OBJECT_ID":"2026-037A","EPOCH":"2026-03-03T14:00:03.000384","MEAN_MOTION":15.97346447,"ECCENTRICITY":0.0001381,"INCLINATION":43.0002,"RA_OF_ASC_NODE":236.3782,"ARG_OF_PERICENTER":264.0887,"MEAN_ANOMALY":318.0085,"EPHEMERIS_TYPE":0,"CLASSIFICATION_TYPE":"U","NORAD_CAT_ID":67932,"ELEMENT_SET_NO":999,"REV_AT_EPOCH":212,"BSTAR":-0.0029675,"MEAN_MOTION_DOT":-0.01357719,"MEAN_MOTION_DDOT":0.00055759},{"OBJECT_NAME":"STARLINK-36852","OBJECT_ID":"2026-037B","EPOCH":"2026-03-03T14:00:03.000384","MEAN_MOTION":15.97460287,"ECCENTRICITY":0.0001249,"INCLINATION":43.0004,"RA_OF_ASC_NODE":236.3747,"ARG_OF_PERICENTER":264.222,"MEAN_ANOMALY":319.2231,"EPHEMERIS_TYPE":0,"CLASSIFICATION_TYPE":"U","NORAD_CAT_ID":67933,"ELEMENT_SET_NO":999,"REV_AT_EPOCH":221,"BSTAR":-0.0029446,"MEAN_MOTION_DOT":-0.01355793,"MEAN_MOTION_DDOT":0.0005568},{"OBJECT_NAME":"STARLINK-36861","OBJECT_ID":"2026-037C","EPOCH":"2026-03-03T14:00:03.000384","MEAN_MOTION":15.97597259,"ECCENTRICITY":0.0001361,"INCLINATION":43.0003,"RA_OF_ASC_NODE":236.3701,"ARG_OF_PERICENTER":268.5302,"MEAN_ANOMALY":316.8494,"EPHEMERIS_TYPE":0,"CLASSIFICATION_TYPE":"U","NORAD_CAT_ID":67934,"ELEMENT_SET_NO":999,"REV_AT_EPOCH":221,"BSTAR":-0.0029234,"MEAN_MOTION_DOT":-0.01356323,"MEAN_MOTION_DDOT":0.00055799},{"OBJECT_NAME":"STARLINK-36860","OBJECT_ID":"2026-037D","EPOCH":"2026-03-03T14:00:03.000384","MEAN_MOTION":15.97742292,"ECCENTRICITY":0.0001512,"INCLINATION":43.0003,"RA_OF_ASC_NODE":236.3654,"ARG_OF_PERICENTER":272.0924,"MEAN_ANOMALY":315.3019,"EPHEMERIS_TYPE":0,"CLASSIFICATION_TYPE":"U","NORAD_CAT_ID":67935,"ELEMENT_SET_NO":999,"REV_AT_EPOCH":221,"BSTAR":-0.0029201,"MEAN_MOTION_DOT":-0.01365707,"MEAN_MOTION_DDOT":0.00056593},{"OBJECT_NAME":"STARLINK-36848","OBJECT_ID":"2026-037E","EPOCH":"2026-03-03T14:00:03.000384","MEAN_MOTION":15.98009049,"ECCENTRICITY":0.0001546,"INCLINATION":43.0003,"RA_OF_ASC_NODE":236.3553,"ARG_OF_PERICENTER":270.1059,"MEAN_ANOMALY":321.0753,"EPHEMERIS_TYPE":0,"CLASSIFICATION_TYPE":"U","NORAD_CAT_ID":67936,"ELEMENT_SET_NO":999,"REV_AT_EPOCH":221,"BSTAR":-0.0028636,"MEAN_MOTION_DOT":-0.01359471,"MEAN_MOTION_DDOT":0.00056277},{"OBJECT_NAME":"STARLINK-36370","OBJECT_ID":"2026-037F","EPOCH":"2026-03-03T14:00:03.000384","MEAN_MOTION":15.97879454,"ECCENTRICITY":0.0001662,"INCLINATION":43.0005,"RA_OF_ASC_NODE":236.3601,"ARG_OF_PERICENTER":269.99,"MEAN_ANOMALY":319.4677,"EPHEMERIS_TYPE":0,"CLASSIFICATION_TYPE":"U","NORAD_CAT_ID":67937,"ELEMENT_SET_NO":999,"REV_AT_EPOCH":221,"BSTAR":-0.0028804,"MEAN_MOTION_DOT":-0.01357617,"MEAN_MOTION_DDOT":0.00056061},{"OBJECT_NAME":"STARLINK-36371","OBJECT_ID":"2026-037G","EPOCH":"2026-03-03T14:00:03.000384","MEAN_MOTION":15.98125376,"ECCENTRICITY":0.0001542,"INCLINATION":43.0003,"RA_OF_ASC_NODE":236.3511,"ARG_OF_PERICENTER":270.2563,"MEAN_ANOMALY":322.4725,"EPHEMERIS_TYPE":0,"CLASSIFICATION_TYPE":"U","NORAD_CAT_ID":67938,"ELEMENT_SET_NO":999,"REV_AT_EPOCH":221,"BSTAR":-0.0028331,"MEAN_MOTION_DOT":-0.01353827,"MEAN_MOTION_DDOT":0.00055918},{"OBJECT_NAME":"STARLINK-36246","OBJECT_ID":"2026-037H","EPOCH":"2026-03-03T14:00:03.000384","MEAN_MOTION":15.98239336,"ECCENTRICITY":0.0001674,"INCLINATION":43.0004,"RA_OF_ASC_NODE":236.3476,"ARG_OF_PERICENTER":270.5425,"MEAN_ANOMALY":323.7249,"EPHEMERIS_TYPE":0,"CLASSIFICATION_TYPE":"U","NORAD_CAT_ID":67939,"ELEMENT_SET_NO":999,"REV_AT_EPOCH":212,"BSTAR":-0.0027979,"MEAN_MOTION_DOT":-0.01345738,"MEAN_MOTION_DDOT":0.00055373}]
