STARLINK-36714          
1 67924U 26036W   26062.58336806 -.01600172  00000+0 -72817-2 0  9995
2 67924  42.9946 287.0349 0001731 268.4623 144.1781 15.85675168  2662
STARLINK-36726          
1 67925U 26036X   26062.58336806 -.01596773  00000+0 -71984-2 0  9991
2 67925  42.9945 287.0260 0001654 268.0038 148.1776 15.85860224  2661
STARLINK-36758          
1 67926U 26036Y   26062.58336806 -.01593405  00000+0 -71280-2 0  9990
2 67926  42.9944 287.0166 0001716 265.9833 153.8552 15.86009570  2669
STARLINK-36728          
1 67927U 26036Z   26062.58336806 -.01596884  00000+0 -70513-2 0  9993
2 67927  42.9944 286.9976 0001740 272.3484 154.9194 15.86278378  2666
STARLINK-36771          
1 67928U 26036AA  26062.58336806 -.01600064  00000+0 -71229-2 0  9995
2 67928  42.9943 287.0066 0001659 271.1497 152.5349 15.86121201  2666
STARLINK-36809          
1 67929U 26036AB  26062.58336806 -.01597761  00000+0 -70083-2 0  9992
2 67929  42.9943 286.9885 0001685 265.4377 165.4966 15.86414982  2665
STARLINK-36865          
1 67930U 26036AC  26062.58336806 -.01601371  00000+0 -69330-2 0  9990
2 67930  42.9942 286.9699 0001732 268.0620 170.1906 15.86683768  2669
STARLINK-36781          
1 67931U 26036AD  26062.58336806 -.01598920  00000+0 -69658-2 0  9999
2 67931  42.9944 286.9793 0001683 270.4041 164.1743 15.86554268  2660
STARLINK-36301          
1 67932U 26037A   26062.58336806 -.01357719  55759-3 -29675-2 0  9990
2 67932  43.0002 236.3782 0001381 264.0887 318.0085 15.97346447  2127
STARLINK-36852          
1 67933U 26037B   26062.58336806 -.01355793  55680-3 -29446-2 0  9990
2 67933  43.0004 236.3747 0001249 264.2220 319.2231 15.97460287  2212
STARLINK-36861          
1 67934U 26037C   26062.58336806 -.01356323  55799-3 -29234-2 0  9997
2 67934  43.0003 236.3701 0001361 268.5302 316.8494 15.97597259  2219
STARLINK-36860          
1 67935U 26037D   26062.58336806 -.01365707  56593-3 -29201-2 0  9991
2 67935  43.0003 236.3654 0001512 272.0924 315.3019 15.97742292  2211
STARLINK-36848          
1 67936U 26037E   26062.58336806 -.01359471  56277-3 -28636-2 0  9993
2 67936  43.0003 236.3553 0001546 270.1059 321.0753 15.98009049  2211
STARLINK-36370          
1 67937U 26037F   26062.58336806 -.01357617  56061-3 -28804-2 0  9992
2 67937  43.0005 236.3601 0001662 269.9900 319.4677 15.97879454  2218
STARLINK-36371          
1 67938U 26037G   26062.58336806 -.01353827  55918-3 -28331-2 0  9997
2 67938  43.0003 236.3511 0001542 270.2563 322.4725 15.98125376  2210
STARLINK-36246          
1 67939U 26037H   26062.58336806 -.01345738  55373-3 -27979-2 0  9992
2 67939  43.0004 236.3476 0001674 270.5425 323.7249 15.98239336  2125
